IRIDIUM 106             
1 41917U 17003A   24136.24649944  .00000024  00000+0  14135-5 0  9995
2 41917  86.3998  47.3523 0001910  87.2401 272.9013 14.34216651383858
IRIDIUM 103             
1 41918U 17003B   24136.72218809  .00000821  00000+0  28613-3 0  9990
2 41918  86.3990  47.0570 0002527  79.6487 280.4993 14.34217281383956
IRIDIUM 109             
1 41919U 17003C   24136.30991932  .00000148  00000+0  45889-4 0  9997
2 41919  86.3996  47.2748 0002493  83.3418 276.8062 14.34222497383850
IRIDIUM 102             
1 41920U 17003D   24136.83636594  .00000299  00000+0  99849-4 0  9999
2 41920  86.3997  46.9951 0002305  86.0063 274.1396 14.34216138384018
IRIDIUM 105             
1 41921U 17003E   24136.59782031  .00000841  00000+0  29316-3 0  9995
2 41921  86.4006  15.5338 0002163  81.3840 278.7601 14.34223790385837
IRIDIUM 104             
1 41922U 17003F   24136.29089470  .00000023  00000+0  10453-5 0  9996
2 41922  86.3998  47.2534 0002573  82.9169 277.2320 14.34216847383928
IRIDIUM 114             
1 41923U 17003G   24136.29723516  .00000823  00000+0  28695-3 0  9996
2 41923  86.3989  47.2379 0002015  88.0159 272.1268 14.34218368383906
IRIDIUM 108             
1 41924U 17003H   24136.74413959  .00000014  00000+0 -19592-5 0  9995
2 41924  86.4001  15.3999 0001988  86.8847 273.2577 14.34216568385845
